{
  "type": "FeatureCollection",
  "features": [
    {
      "type": "Feature",
      "properties": {
        "norad_id": 66633,
        "name": "STARLINK-35948",
        "group": "last-30-days",
        "lat": 42.73508457921305,
        "lon": -33.89893832170386,
        "alt_km": 403.433046947438,
        "timestamp": "2025-12-12T03:50:51.177673+00:00",
        "meta_object_name": "STARLINK-35948",
        "meta_object_id": "2025-271S",
        "meta_epoch": "2025-12-11T14:00:01.999872",
        "meta_mean_motion": 15.54901663,
        "meta_eccentricity": 0.00010186,
        "meta_inclination": 53.1603,
        "meta_ra_of_asc_node": 192.7199,
        "meta_arg_of_pericenter": 93.3127,
        "meta_mean_anomaly": 39.8128,
        "meta_ephemeris_type": 0,
        "meta_classification_type": "U",
        "meta_norad_cat_id": 66633,
        "meta_element_set_no": 999,
        "meta_rev_at_epoch": 405,
        "meta_bstar": -0.033408589,
        "meta_mean_motion_dot": -0.02029508,
        "meta_mean_motion_ddot": 0,
        "tle_line1": "1 66633U 25271S   25345.58335648 -.02029508  00000+0 -33409-1 0  9999",
        "tle_line2": "2 66633  53.1603 192.7199 0001018  93.3127  39.8128 15.54901663  4057"
      },
      "geometry": {
        "type": "Point",
        "coordinates": [
          -33.89893832170386,
          42.73508457921305
        ]
      }
    },
    {
      "type": "Feature",
      "properties": {
        "norad_id": 66634,
        "name": "STARLINK-35967",
        "group": "last-30-days",
        "lat": 41.60625136112985,
        "lon": -31.803468050702932,
        "alt_km": 403.48031604818334,
        "timestamp": "2025-12-12T03:50:51.177685+00:00",
        "meta_object_name": "STARLINK-35967",
        "meta_object_id": "2025-271T",
        "meta_epoch": "2025-12-11T14:00:01.999872",
        "meta_mean_motion": 15.54899115,
        "meta_eccentricity": 0.00011673,
        "meta_inclination": 53.1602,
        "meta_ra_of_asc_node": 192.7157,
        "meta_arg_of_pericenter": 98.2125,
        "meta_mean_anomaly": 36.8277,
        "meta_ephemeris_type": 0,
        "meta_classification_type": "U",
        "meta_norad_cat_id": 66634,
        "meta_element_set_no": 999,
        "meta_rev_at_epoch": 398,
        "meta_bstar": -0.033284622,
        "meta_mean_motion_dot": -0.02022693,
        "meta_mean_motion_ddot": 0,
        "tle_line1": "1 66634U 25271T   25345.58335648 -.02022693  00000+0 -33285-1 0  9990",
        "tle_line2": "2 66634  53.1602 192.7157 0001167  98.2125  36.8277 15.54899115  3989"
      },
      "geometry": {
        "type": "Point",
        "coordinates": [
          -31.803468050702932,
          41.60625136112985
        ]
      }
    },
    {
      "type": "Feature",
      "properties": {
        "norad_id": 66635,
        "name": "STARLINK-35955",
        "group": "last-30-days",
        "lat": 40.44166741064139,
        "lon": -29.782511903321456,
        "alt_km": 403.6990913999898,
        "timestamp": "2025-12-12T03:50:51.177695+00:00",
        "meta_object_name": "STARLINK-35955",
        "meta_object_id": "2025-271U",
        "meta_epoch": "2025-12-11T14:00:01.999872",
        "meta_mean_motion": 15.54899213,
        "meta_eccentricity": 0.00011403,
        "meta_inclination": 53.16,
        "meta_ra_of_asc_node": 192.7124,
        "meta_arg_of_pericenter": 96.9112,
        "meta_mean_anomaly": 40.0466,
        "meta_ephemeris_type": 0,
        "meta_classification_type": "U",
        "meta_norad_cat_id": 66635,
        "meta_element_set_no": 999,
        "meta_rev_at_epoch": 405,
        "meta_bstar": -0.033292086,
        "meta_mean_motion_dot": -0.02023089,
        "meta_mean_motion_ddot": 0,
        "tle_line1": "1 66635U 25271U   25345.58335648 -.02023089  00000+0 -33292-1 0  9999",
        "tle_line2": "2 66635  53.1600 192.7124 0001140  96.9112  40.0466 15.54899213  4059"
      },
      "geometry": {
        "type": "Point",
        "coordinates": [
          -29.782511903321456,
          40.44166741064139
        ]
      }
    },
    {
      "type": "Feature",
      "properties": {
        "norad_id": 66636,
        "name": "STARLINK-35968",
        "group": "last-30-days",
        "lat": 39.242351602773255,
        "lon": -27.831389860400314,
        "alt_km": 403.89238443442355,
        "timestamp": "2025-12-12T03:50:51.177707+00:00",
        "meta_object_name": "STARLINK-35968",
        "meta_object_id": "2025-271V",
        "meta_epoch": "2025-12-11T14:00:01.999872",
        "meta_mean_motion": 15.54899693,
        "meta_eccentricity": 0.0001225,
        "meta_inclination": 53.1599,
        "meta_ra_of_asc_node": 192.708,
        "meta_arg_of_pericenter": 90.7216,
        "meta_mean_anomaly": 48.1545,
        "meta_ephemeris_type": 0,
        "meta_classification_type": "U",
        "meta_norad_cat_id": 66636,
        "meta_element_set_no": 999,
        "meta_rev_at_epoch": 405,
        "meta_bstar": -0.033320294,
        "meta_mean_motion_dot": -0.02024705,
        "meta_mean_motion_ddot": 0,
        "tle_line1": "1 66636U 25271V   25345.58335648 -.02024705  00000+0 -33320-1 0  9998",
        "tle_line2": "2 66636  53.1599 192.7080 0001225  90.7216  48.1545 15.54899693  4058"
      },
      "geometry": {
        "type": "Point",
        "coordinates": [
          -27.831389860400314,
          39.242351602773255
        ]
      }
    },
    {
      "type": "Feature",
      "properties": {
        "norad_id": 66637,
        "name": "STARLINK-35953",
        "group": "last-30-days",
        "lat": 38.014608503253676,
        "lon": -25.950595184943847,
        "alt_km": 404.08827658103473,
        "timestamp": "2025-12-12T03:50:51.177717+00:00",
        "meta_object_name": "STARLINK-35953",
        "meta_object_id": "2025-271W",
        "meta_epoch": "2025-12-11T14:00:01.999872",
        "meta_mean_motion": 15.54897067,
        "meta_eccentricity": 0.00011554,
        "meta_inclination": 53.1601,
        "meta_ra_of_asc_node": 192.7041,
        "meta_arg_of_pericenter": 99.4183,
        "meta_mean_anomaly": 41.3758,
        "meta_ephemeris_type": 0,
        "meta_classification_type": "U",
        "meta_norad_cat_id": 66637,
        "meta_element_set_no": 999,
        "meta_rev_at_epoch": 405,
        "meta_bstar": -0.033281983,
        "meta_mean_motion_dot": -0.02022406,
        "meta_mean_motion_ddot": 0,
        "tle_line1": "1 66637U 25271W   25345.58335648 -.02022406  00000+0 -33282-1 0  9992",
        "tle_line2": "2 66637  53.1601 192.7041 0001155  99.4183  41.3758 15.54897067  4055"
      },
      "geometry": {
        "type": "Point",
        "coordinates": [
          -25.950595184943847,
          38.014608503253676
        ]
      }
    },
    {
      "type": "Feature",
      "properties": {
        "norad_id": 66638,
        "name": "STARLINK-35972",
        "group": "last-30-days",
        "lat": 36.75504795277835,
        "lon": -24.12902897723457,
        "alt_km": 404.28699672872335,
        "timestamp": "2025-12-12T03:50:51.177727+00:00",
        "meta_object_name": "STARLINK-35972",
        "meta_object_id": "2025-271X",
        "meta_epoch": "2025-12-11T14:00:01.999872",
        "meta_mean_motion": 15.54897755,
        "meta_eccentricity": 0.00011305,
        "meta_inclination": 53.1598,
        "meta_ra_of_asc_node": 192.7007,
        "meta_arg_of_pericenter": 103.0303,
        "meta_mean_anomaly": 39.6776,
        "meta_ephemeris_type": 0,
        "meta_classification_type": "U",
        "meta_norad_cat_id": 66638,
        "meta_element_set_no": 999,
        "meta_rev_at_epoch": 405,
        "meta_bstar": -0.033240576,
        "meta_mean_motion_dot": -0.02020187,
        "meta_mean_motion_ddot": 0,
        "tle_line1": "1 66638U 25271X   25345.58335648 -.02020187  00000+0 -33241-1 0  9992",
        "tle_line2": "2 66638  53.1598 192.7007 0001130 103.0303  39.6776 15.54897755  4056"
      },
      "geometry": {
        "type": "Point",
        "coordinates": [
          -24.12902897723457,
          36.75504795277835
        ]
      }
    },
    {
      "type": "Feature",
      "properties": {
        "norad_id": 66639,
        "name": "STARLINK-35908",
        "group": "last-30-days",
        "lat": 35.469991888962994,
        "lon": -22.36975405346119,
        "alt_km": 404.48212796681673,
        "timestamp": "2025-12-12T03:50:51.177736+00:00",
        "meta_object_name": "STARLINK-35908",
        "meta_object_id": "2025-271Y",
        "meta_epoch": "2025-12-11T14:00:01.999872",
        "meta_mean_motion": 15.54898176,
        "meta_eccentricity": 0.00011745,
        "meta_inclination": 53.1598,
        "meta_ra_of_asc_node": 192.6961,
        "meta_arg_of_pericenter": 103.3822,
        "meta_mean_anomaly": 41.2427,
        "meta_ephemeris_type": 0,
        "meta_classification_type": "U",
        "meta_norad_cat_id": 66639,
        "meta_element_set_no": 999,
        "meta_rev_at_epoch": 405,
        "meta_bstar": -0.033269325,
        "meta_mean_motion_dot": -0.02021804,
        "meta_mean_motion_ddot": 0,
        "tle_line1": "1 66639U 25271Y   25345.58335648 -.02021804  00000+0 -33269-1 0  9990",
        "tle_line2": "2 66639  53.1598 192.6961 0001174 103.3822  41.2427 15.54898176  4052"
      },
      "geometry": {
        "type": "Point",
        "coordinates": [
          -22.36975405346119,
          35.469991888962994
        ]
      }
    }
  ]
}